[{"OBJECT_NAME":"YAOGAN-40 01A","OBJECT_ID":"2023-139A","EPOCH":"2026-03-09T23:20:31.440768","MEAN_MOTION":14.12429316,"ECCENTRICITY":0.00020937,"INCLINATION":85.9907,"RA_OF_ASC_NODE":304.5051,"ARG_OF_PERICENTER":91.437,"MEAN_ANOMALY":268.7053,"EPHEMERIS_TYPE":0,"CLASSIFICATION_TYPE":"U","NORAD_CAT_ID":57830,"ELEMENT_SET_NO":999,"REV_AT_EPOCH":12869,"BSTAR":6.725684e-5,"MEAN_MOTION_DOT":1.43e-6,"MEAN_MOTION_DDOT":0},{"OBJECT_NAME":"DELTA 1 DEB","OBJECT_ID":"1978-026K","EPOCH":"2026-03-09T22:51:04.768992","MEAN_MOTION":14.21423366,"ECCENTRICITY":0.00420105,"INCLINATION":98.8711,"RA_OF_ASC_NODE":103.7843,"ARG_OF_PERICENTER":320.8505,"MEAN_ANOMALY":113.3751,"EPHEMERIS_TYPE":0,"CLASSIFICATION_TYPE":"U","NORAD_CAT_ID":12170,"ELEMENT_SET_NO":999,"REV_AT_EPOCH":32885,"BSTAR":0.00022681589,"MEAN_MOTION_DOT":4.55e-6,"MEAN_MOTION_DDOT":0}]
